[
    {
        "OBJECT_NAME": "BEIDOU-3 M11",
        "OBJECT_ID": "2018-067B",
        "EPOCH": "2025-05-02T19:21:17.780256",
        "MEAN_MOTION": 1.86227326,
        "ECCENTRICITY": 0.0003987,
        "INCLINATION": 54.1905,
        "RA_OF_ASC_NODE": 194.9215,
        "ARG_OF_PERICENTER": 14.8203,
        "MEAN_ANOMALY": 345.2552,
        "EPHEMERIS_TYPE": 0,
        "CLASSIFICATION_TYPE": "U",
        "NORAD_CAT_ID": 43603,
        "ELEMENT_SET_NO": 999,
        "REV_AT_EPOCH": 4550,
        "BSTAR": 0,
        "MEAN_MOTION_DOT": -1.1e-07,
        "MEAN_MOTION_DDOT": 0
    },
    {
        "OBJECT_NAME": "BEIDOU-3 M13",
        "OBJECT_ID": "2018-072A",
        "EPOCH": "2025-05-03T07:15:25.075584",
        "MEAN_MOTION": 1.86231275,
        "ECCENTRICITY": 0.0008635,
        "INCLINATION": 56.2647,
        "RA_OF_ASC_NODE": 76.2237,
        "ARG_OF_PERICENTER": 312.6777,
        "MEAN_ANOMALY": 47.2191,
        "EPHEMERIS_TYPE": 0,
        "CLASSIFICATION_TYPE": "U",
        "NORAD_CAT_ID": 43622,
        "ELEMENT_SET_NO": 999,
        "REV_AT_EPOCH": 4502,
        "BSTAR": 0,
        "MEAN_MOTION_DOT": -1.4e-07,
        "MEAN_MOTION_DDOT": 0
    },
    {
        "OBJECT_NAME": "BEIDOU-3 M14",
        "OBJECT_ID": "2018-072B",
        "EPOCH": "2025-05-03T04:01:42.629664",
        "MEAN_MOTION": 1.86231288,
        "ECCENTRICITY": 0.0006705,
        "INCLINATION": 56.2665,
        "RA_OF_ASC_NODE": 76.2217,
        "ARG_OF_PERICENTER": 335.8404,
        "MEAN_ANOMALY": 24.0972,
        "EPHEMERIS_TYPE": 0,
        "CLASSIFICATION_TYPE": "U",
        "NORAD_CAT_ID": 43623,
        "ELEMENT_SET_NO": 999,
        "REV_AT_EPOCH": 4501,
        "BSTAR": 0,
        "MEAN_MOTION_DOT": -1.4e-07,
        "MEAN_MOTION_DDOT": 0
    },
    {
        "OBJECT_NAME": "BEIDOU-3 M16",
        "OBJECT_ID": "2018-078A",
        "EPOCH": "2025-05-03T07:52:34.412448",
        "MEAN_MOTION": 1.86232276,
        "ECCENTRICITY": 0.0007845,
        "INCLINATION": 54.4576,
        "RA_OF_ASC_NODE": 314.3155,
        "ARG_OF_PERICENTER": 30.0056,
        "MEAN_ANOMALY": 330.0402,
        "EPHEMERIS_TYPE": 0,
        "CLASSIFICATION_TYPE": "U",
        "NORAD_CAT_ID": 43647,
        "ELEMENT_SET_NO": 999,
        "REV_AT_EPOCH": 4453,
        "BSTAR": 0,
        "MEAN_MOTION_DOT": -6.6e-07,
        "MEAN_MOTION_DDOT": 0
    },
    {
        "OBJECT_NAME": "BEIDOU-3 M15",
        "OBJECT_ID": "2018-078B",
        "EPOCH": "2025-05-02T22:05:28.907808",
        "MEAN_MOTION": 1.86232257,
        "ECCENTRICITY": 0.0004922,
        "INCLINATION": 54.4537,
        "RA_OF_ASC_NODE": 314.3314,
        "ARG_OF_PERICENTER": 42.5222,
        "MEAN_ANOMALY": 317.5162,
        "EPHEMERIS_TYPE": 0,
        "CLASSIFICATION_TYPE": "U",
        "NORAD_CAT_ID": 43648,
        "ELEMENT_SET_NO": 999,
        "REV_AT_EPOCH": 4453,
        "BSTAR": 0,
        "MEAN_MOTION_DOT": -6.6e-07,
        "MEAN_MOTION_DDOT": 0
    },
    {
        "OBJECT_NAME": "BEIDOU-3 G1",
        "OBJECT_ID": "2018-085A",
        "EPOCH": "2025-05-03T20:10:29.096256",
        "MEAN_MOTION": 1.00269226,
        "ECCENTRICITY": 0.0004213,
        "INCLINATION": 2.9969,
        "RA_OF_ASC_NODE": 99.1813,
        "ARG_OF_PERICENTER": 10.3333,
        "MEAN_ANOMALY": 195.1403,
        "EPHEMERIS_TYPE": 0,
        "CLASSIFICATION_TYPE": "U",
        "NORAD_CAT_ID": 43683,
        "ELEMENT_SET_NO": 999,
        "REV_AT_EPOCH": 2395,
        "BSTAR": 0,
        "MEAN_MOTION_DOT": -2.87e-06,
        "MEAN_MOTION_DDOT": 0
    },
    {
        "OBJECT_NAME": "BEIDOU-3 M17",
        "OBJECT_ID": "2018-093A",
        "EPOCH": "2025-04-30T09:22:24.765024",
        "MEAN_MOTION": 1.86228279,
        "ECCENTRICITY": 0.0008909,
        "INCLINATION": 54.1844,
        "RA_OF_ASC_NODE": 196.301,
        "ARG_OF_PERICENTER": 284.8582,
        "MEAN_ANOMALY": 75.1141,
        "EPHEMERIS_TYPE": 0,
        "CLASSIFICATION_TYPE": "U",
        "NORAD_CAT_ID": 43706,
        "ELEMENT_SET_NO": 999,
        "REV_AT_EPOCH": 4385,
        "BSTAR": 0,
        "MEAN_MOTION_DOT": 2.4e-07,
        "MEAN_MOTION_DDOT": 0
    },
    {
        "OBJECT_NAME": "BEIDOU-3 M18",
        "OBJECT_ID": "2018-093B",
        "EPOCH": "2025-05-02T22:30:52.121664",
        "MEAN_MOTION": 1.86229845,
        "ECCENTRICITY": 0.0007032,
        "INCLINATION": 54.1847,
        "RA_OF_ASC_NODE": 196.2063,
        "ARG_OF_PERICENTER": 315.1102,
        "MEAN_ANOMALY": 44.8952,
        "EPHEMERIS_TYPE": 0,
        "CLASSIFICATION_TYPE": "U",
        "NORAD_CAT_ID": 43707,
        "ELEMENT_SET_NO": 999,
        "REV_AT_EPOCH": 4389,
        "BSTAR": 0,
        "MEAN_MOTION_DOT": -1.3e-07,
        "MEAN_MOTION_DDOT": 0
    },
    {
        "OBJECT_NAME": "BEIDOU-3 IGSO-1",
        "OBJECT_ID": "2019-023A",
        "EPOCH": "2025-05-03T16:06:51.798240",
        "MEAN_MOTION": 1.00258855,
        "ECCENTRICITY": 0.0020725,
        "INCLINATION": 58.116,
        "RA_OF_ASC_NODE": 41.8803,
        "ARG_OF_PERICENTER": 226.3848,
        "MEAN_ANOMALY": 313.0425,
        "EPHEMERIS_TYPE": 0,
        "CLASSIFICATION_TYPE": "U",
        "NORAD_CAT_ID": 44204,
        "ELEMENT_SET_NO": 999,
        "REV_AT_EPOCH": 310,
        "BSTAR": 0,
        "MEAN_MOTION_DOT": -2.34e-06,
        "MEAN_MOTION_DDOT": 0
    },
    {
        "OBJECT_NAME": "BEIDOU-2 G8",
        "OBJECT_ID": "2019-027A",
        "EPOCH": "2025-05-03T20:11:44.160576",
        "MEAN_MOTION": 1.00269285,
        "ECCENTRICITY": 0.0004885,
        "INCLINATION": 1.5814,
        "RA_OF_ASC_NODE": 74.9045,
        "ARG_OF_PERICENTER": 255.7591,
        "MEAN_ANOMALY": 338.763,
        "EPHEMERIS_TYPE": 0,
        "CLASSIFICATION_TYPE": "U",
        "NORAD_CAT_ID": 44231,
        "ELEMENT_SET_NO": 999,
        "REV_AT_EPOCH": 2197,
        "BSTAR": 0,
        "MEAN_MOTION_DOT": -2.58e-06,
        "MEAN_MOTION_DDOT": 0
    },
    {
        "OBJECT_NAME": "BEIDOU-3 IGSO-2",
        "OBJECT_ID": "2019-035A",
        "EPOCH": "2025-05-03T16:56:35.768256",
        "MEAN_MOTION": 1.00285044,
        "ECCENTRICITY": 0.0035755,
        "INCLINATION": 55.2015,
        "RA_OF_ASC_NODE": 162.4566,
        "ARG_OF_PERICENTER": 209.7332,
        "MEAN_ANOMALY": 223.0964,
        "EPHEMERIS_TYPE": 0,
        "CLASSIFICATION_TYPE": "U",
        "NORAD_CAT_ID": 44337,
        "ELEMENT_SET_NO": 999,
        "REV_AT_EPOCH": 2156,
        "BSTAR": 0,
        "MEAN_MOTION_DOT": -1.05e-06,
        "MEAN_MOTION_DDOT": 0
    },
    {
        "OBJECT_NAME": "BEIDOU-3 M24",
        "OBJECT_ID": "2019-061A",
        "EPOCH": "2025-04-30T07:46:42.981312",
        "MEAN_MOTION": 1.86228978,
        "ECCENTRICITY": 0.0007549,
        "INCLINATION": 54.4118,
        "RA_OF_ASC_NODE": 196.6526,
        "ARG_OF_PERICENTER": 358.6246,
        "MEAN_ANOMALY": 1.4441,
        "EPHEMERIS_TYPE": 0,
        "CLASSIFICATION_TYPE": "U",
        "NORAD_CAT_ID": 44542,
        "ELEMENT_SET_NO": 999,
        "REV_AT_EPOCH": 3810,
        "BSTAR": 0,
        "MEAN_MOTION_DOT": 2.5e-07,
        "MEAN_MOTION_DDOT": 0
    },
    {
        "OBJECT_NAME": "BEIDOU-3 M23",
        "OBJECT_ID": "2019-061B",
        "EPOCH": "2025-05-03T18:00:03.315168",
        "MEAN_MOTION": 1.86229266,
        "ECCENTRICITY": 0.0004725,
        "INCLINATION": 54.41,
        "RA_OF_ASC_NODE": 196.5055,
        "ARG_OF_PERICENTER": 338.6131,
        "MEAN_ANOMALY": 71.0707,
        "EPHEMERIS_TYPE": 0,
        "CLASSIFICATION_TYPE": "U",
        "NORAD_CAT_ID": 44543,
        "ELEMENT_SET_NO": 999,
        "REV_AT_EPOCH": 3817,
        "BSTAR": 0,
        "MEAN_MOTION_DOT": -2e-07,
        "MEAN_MOTION_DDOT": 0
    }
]