BEIDOU-3 M11 (C25)      
1 43603U 18067B   25122.80645579 -.00000011  00000+0  00000+0 0  9995
2 43603  54.1905 194.9215 0003987  14.8203 345.2552  1.86227326 45505
BEIDOU-3 M13 (C32)      
1 43622U 18072A   25123.30237356 -.00000014  00000+0  00000+0 0  9991
2 43622  56.2647  76.2237 0008635 312.6777  47.2191  1.86231275 45021
BEIDOU-3 M14 (C33)      
1 43623U 18072B   25123.16785451 -.00000014  00000+0  00000+0 0  9990
2 43623  56.2665  76.2217 0006705 335.8404  24.0972  1.86231288 45013
BEIDOU-3 M16 (C35)      
1 43647U 18078A   25123.32817607 -.00000066  00000+0  00000+0 0  9996
2 43647  54.4576 314.3155 0007845  30.0056 330.0402  1.86232276 44532
BEIDOU-3 M15 (C34)      
1 43648U 18078B   25122.92047347 -.00000066  00000+0  00000+0 0  9998
2 43648  54.4537 314.3314 0004922  42.5222 317.5162  1.86232257 44535
BEIDOU-3 G1 (C59)       
1 43683U 18085A   25123.84061454 -.00000287  00000+0  00000+0 0  9997
2 43683   2.9969  99.1813 0004213  10.3333 195.1403  1.00269226 23955
BEIDOU-3 M17 (C36)      
1 43706U 18093A   25120.39056441  .00000024  00000+0  00000+0 0  9997
2 43706  54.1844 196.3010 0008909 284.8582  75.1141  1.86228279 43855
BEIDOU-3 M18 (C37)      
1 43707U 18093B   25122.93810326 -.00000013  00000+0  00000+0 0  9999
2 43707  54.1847 196.2063 0007032 315.1102  44.8952  1.86229845 43895
BEIDOU-3 IGSO-1 (C38)   
1 44204U 19023A   25123.67143285 -.00000234  00000+0  00000+0 0  9996
2 44204  58.1160  41.8803 0020725 226.3848 313.0425  1.00258855  3106
BEIDOU-2 G8 (C01)       
1 44231U 19027A   25123.84148334 -.00000258  00000+0  00000+0 0  9995
2 44231   1.5814  74.9045 0004885 255.7591 338.7630  1.00269285 21975
BEIDOU-3 IGSO-2 (C39)   
1 44337U 19035A   25123.70596954 -.00000105  00000+0  00000+0 0  9992
2 44337  55.2015 162.4566 0035755 209.7332 223.0964  1.00285044 21566
BEIDOU-3 M24 (C46)      
1 44542U 19061A   25120.32410858  .00000025  00000+0  00000+0 0  9992
2 44542  54.4118 196.6526 0007549 358.6246   1.4441  1.86228978 38105
BEIDOU-3 M23 (C45)      
1 44543U 19061B   25123.75003837 -.00000020  00000+0  00000+0 0  9994
2 44543  54.4100 196.5055 0004725 338.6131  71.0707  1.86229266 38173
